0 COSMOS 839
1 09011U 76067A   13281.86214349 -.00000099  00000-0 -15169-3 0  8915
2 09011 065.8561 220.6738 0710251 285.4349 066.9316 12.32802045688834
0 COSMOS 839
1 09011U 76067A   13283.97133746 -.00000102  00000-0 -16300-3 0  8924
2 09011 065.8562 216.5967 0710250 284.6237 067.7081 12.32801958689098
0 COSMOS 839
1 09011U 76067A   13286.16165445 -.00000079  00000-0 -81602-4 0  8931
2 09011 065.8564 212.3629 0710224 283.7828 068.5146 12.32801583689361
0 COSMOS 839
1 09011U 76067A   13288.18972644 -.00000034  00000-0  76212-4 0  8944
2 09011 065.8563 208.4429 0710220 283.0026 069.2643 12.32801167689619
0 COSMOS 839
1 09011U 76067A   13290.21779970 -.00000060  00000-0 -13944-4 0  8952
2 09011 065.8554 204.5215 0710241 282.2327 070.0052 12.32801440689862
0 COSMOS 839
1 09011U 76067A   13292.81373392 -.00000065  00000-0 -32712-4 0  8968
2 09011 065.8557 199.5054 0710207 281.2238 070.9786 12.32801533690184
0 COSMOS 839
1 09011U 76067A   13294.84180766 -.00000095  00000-0 -13653-3 0  8970
2 09011 065.8556 195.5853 0710180 280.4435 071.7332 12.32801692690436
